[{"OBJECT_NAME":"NOAA 1","OBJECT_ID":"1970-106A","EPOCH":"2026-03-14T14:44:42.109728","MEAN_MOTION":12.5404932,"ECCENTRICITY":0.00318373,"INCLINATION":101.3502,"RA_OF_ASC_NODE":112.4365,"ARG_OF_PERICENTER":171.2563,"MEAN_ANOMALY":340.7171,"EPHEMERIS_TYPE":0,"CLASSIFICATION_TYPE":"U","NORAD_CAT_ID":4793,"ELEMENT_SET_NO":999,"REV_AT_EPOCH":52883,"BSTAR":8.8626935e-5,"MEAN_MOTION_DOT":-2.8e-7,"MEAN_MOTION_DDOT":0},{"OBJECT_NAME":"NOAA 2 (ITOS-D)","OBJECT_ID":"1972-082A","EPOCH":"2026-03-14T14:50:08.857248","MEAN_MOTION":12.53211968,"ECCENTRICITY":0.00039126,"INCLINATION":102.0159,"RA_OF_ASC_NODE":91.129,"ARG_OF_PERICENTER":355.6531,"MEAN_ANOMALY":121.0728,"EPHEMERIS_TYPE":0,"CLASSIFICATION_TYPE":"U","NORAD_CAT_ID":6235,"ELEMENT_SET_NO":999,"REV_AT_EPOCH":44310,"BSTAR":0.00019605805,"MEAN_MOTION_DOT":-1.5e-7,"MEAN_MOTION_DDOT":0},{"OBJECT_NAME":"NOAA 3","OBJECT_ID":"1973-086A","EPOCH":"2026-03-14T14:27:50.086656","MEAN_MOTION":12.40391854,"ECCENTRICITY":0.00061828,"INCLINATION":102.2903,"RA_OF_ASC_NODE":86.629,"ARG_OF_PERICENTER":299.3865,"MEAN_ANOMALY":172.4451,"EPHEMERIS_TYPE":0,"CLASSIFICATION_TYPE":"U","NORAD_CAT_ID":6920,"ELEMENT_SET_NO":999,"REV_AT_EPOCH":37017,"BSTAR":0.00017204815,"MEAN_MOTION_DOT":-2.3e-7,"MEAN_MOTION_DDOT":0},{"OBJECT_NAME":"NOAA 4","OBJECT_ID":"1974-089A","EPOCH":"2026-03-14T14:21:24.257088","MEAN_MOTION":12.53201808,"ECCENTRICITY":0.00090593,"INCLINATION":102.0069,"RA_OF_ASC_NODE":85.382,"ARG_OF_PERICENTER":19.5965,"MEAN_ANOMALY":98.7366,"EPHEMERIS_TYPE":0,"CLASSIFICATION_TYPE":"U","NORAD_CAT_ID":7529,"ELEMENT_SET_NO":999,"REV_AT_EPOCH":34767,"BSTAR":0.00020581752,"MEAN_MOTION_DOT":-1.4e-7,"MEAN_MOTION_DDOT":0},{"OBJECT_NAME":"NOAA 5","OBJECT_ID":"1976-077A","EPOCH":"2026-03-14T14:54:37.580256","MEAN_MOTION":12.37828582,"ECCENTRICITY":0.00098869,"INCLINATION":102.2964,"RA_OF_ASC_NODE":59.1539,"ARG_OF_PERICENTER":151.2661,"MEAN_ANOMALY":326.1213,"EPHEMERIS_TYPE":0,"CLASSIFICATION_TYPE":"U","NORAD_CAT_ID":9057,"ELEMENT_SET_NO":999,"REV_AT_EPOCH":24277,"BSTAR":0.00021624516,"MEAN_MOTION_DOT":-1.8e-7,"MEAN_MOTION_DDOT":0},{"OBJECT_NAME":"TIROS N","OBJECT_ID":"1978-096A","EPOCH":"2026-03-14T14:31:36.287040","MEAN_MOTION":14.1934094,"ECCENTRICITY":0.00109975,"INCLINATION":98.4627,"RA_OF_ASC_NODE":98.907,"ARG_OF_PERICENTER":151.4258,"MEAN_ANOMALY":208.7524,"EPHEMERIS_TYPE":0,"CLASSIFICATION_TYPE":"U","NORAD_CAT_ID":11060,"ELEMENT_SET_NO":999,"REV_AT_EPOCH":66533,"BSTAR":0.00012443303,"MEAN_MOTION_DOT":2.2e-6,"MEAN_MOTION_DDOT":0},{"OBJECT_NAME":"NOAA 6","OBJECT_ID":"1979-057A","EPOCH":"2026-03-14T13:41:18.630528","MEAN_MOTION":14.35437713,"ECCENTRICITY":0.0010024,"INCLINATION":98.5745,"RA_OF_ASC_NODE":103.6944,"ARG_OF_PERICENTER":172.3502,"MEAN_ANOMALY":187.7838,"EPHEMERIS_TYPE":0,"CLASSIFICATION_TYPE":"U","NORAD_CAT_ID":11416,"ELEMENT_SET_NO":999,"REV_AT_EPOCH":43738,"BSTAR":0.00013778283,"MEAN_MOTION_DOT":3.52e-6,"MEAN_MOTION_DDOT":0},{"OBJECT_NAME":"NOAA 7","OBJECT_ID":"1981-059A","EPOCH":"2026-03-14T14:25:49.174176","MEAN_MOTION":14.17774585,"ECCENTRICITY":0.00116026,"INCLINATION":98.805,"RA_OF_ASC_NODE":141.6105,"ARG_OF_PERICENTER":173.7794,"MEAN_ANOMALY":186.3527,"EPHEMERIS_TYPE":0,"CLASSIFICATION_TYPE":"U","NORAD_CAT_ID":12553,"ELEMENT_SET_NO":999,"REV_AT_EPOCH":31134,"BSTAR":5.2111896e-5,"MEAN_MOTION_DOT":6.2e-7,"MEAN_MOTION_DDOT":0},{"OBJECT_NAME":"NOAA 8","OBJECT_ID":"1983-022A","EPOCH":"2026-03-14T14:13:55.667424","MEAN_MOTION":14.29769105,"ECCENTRICITY":0.00149401,"INCLINATION":98.737,"RA_OF_ASC_NODE":86.4066,"ARG_OF_PERICENTER":171.202,"MEAN_ANOMALY":188.9426,"EPHEMERIS_TYPE":0,"CLASSIFICATION_TYPE":"U","NORAD_CAT_ID":13923,"ELEMENT_SET_NO":999,"REV_AT_EPOCH":23755,"BSTAR":9.136972e-5,"MEAN_MOTION_DOT":1.9e-6,"MEAN_MOTION_DDOT":0},{"OBJECT_NAME":"NOAA 9","OBJECT_ID":"1984-123A","EPOCH":"2026-03-14T14:21:42.171264","MEAN_MOTION":14.17040828,"ECCENTRICITY":0.00137051,"INCLINATION":99.109,"RA_OF_ASC_NODE":98.0036,"ARG_OF_PERICENTER":256.8104,"MEAN_ANOMALY":214.7785,"EPHEMERIS_TYPE":0,"CLASSIFICATION_TYPE":"U","NORAD_CAT_ID":15427,"ELEMENT_SET_NO":999,"REV_AT_EPOCH":13002,"BSTAR":9.1059404e-5,"MEAN_MOTION_DOT":1.36e-6,"MEAN_MOTION_DDOT":0},{"OBJECT_NAME":"NOAA 10","OBJECT_ID":"1986-073A","EPOCH":"2026-03-14T14:15:42.054336","MEAN_MOTION":14.29146768,"ECCENTRICITY":0.00109195,"INCLINATION":98.7003,"RA_OF_ASC_NODE":66.9773,"ARG_OF_PERICENTER":273.4285,"MEAN_ANOMALY":197.5373,"EPHEMERIS_TYPE":0,"CLASSIFICATION_TYPE":"U","NORAD_CAT_ID":16969,"ELEMENT_SET_NO":999,"REV_AT_EPOCH":5590,"BSTAR":9.3743125e-5,"MEAN_MOTION_DOT":1.93e-6,"MEAN_MOTION_DDOT":0},{"OBJECT_NAME":"NOAA 11","OBJECT_ID":"1988-089A","EPOCH":"2026-03-14T14:12:38.052576","MEAN_MOTION":14.15822142,"ECCENTRICITY":0.00104952,"INCLINATION":98.6101,"RA_OF_ASC_NODE":22.4673,"ARG_OF_PERICENTER":204.6437,"MEAN_ANOMALY":155.4238,"EPHEMERIS_TYPE":0,"CLASSIFICATION_TYPE":"U","NORAD_CAT_ID":19531,"ELEMENT_SET_NO":999,"REV_AT_EPOCH":93409,"BSTAR":6.4332899e-5,"MEAN_MOTION_DOT":8.4e-7,"MEAN_MOTION_DDOT":0},{"OBJECT_NAME":"NOAA 12","OBJECT_ID":"1991-032A","EPOCH":"2026-03-14T14:13:09.389856","MEAN_MOTION":14.26719488,"ECCENTRICITY":0.00127194,"INCLINATION":98.6158,"RA_OF_ASC_NODE":63.5174,"ARG_OF_PERICENTER":308.0314,"MEAN_ANOMALY":51.9718,"EPHEMERIS_TYPE":0,"CLASSIFICATION_TYPE":"U","NORAD_CAT_ID":21263,"ELEMENT_SET_NO":999,"REV_AT_EPOCH":81147,"BSTAR":7.5187736e-5,"MEAN_MOTION_DOT":1.38e-6,"MEAN_MOTION_DDOT":0},{"OBJECT_NAME":"NOAA 13","OBJECT_ID":"1993-050A","EPOCH":"2026-03-14T11:06:17.345664","MEAN_MOTION":14.13638166,"ECCENTRICITY":0.00102796,"INCLINATION":98.6937,"RA_OF_ASC_NODE":21.0765,"ARG_OF_PERICENTER":44.5972,"MEAN_ANOMALY":315.6027,"EPHEMERIS_TYPE":0,"CLASSIFICATION_TYPE":"U","NORAD_CAT_ID":22739,"ELEMENT_SET_NO":999,"REV_AT_EPOCH":67999,"BSTAR":8.6131906e-5,"MEAN_MOTION_DOT":1.2e-6,"MEAN_MOTION_DDOT":0},{"OBJECT_NAME":"NOAA 14","OBJECT_ID":"1994-089A","EPOCH":"2026-03-14T13:29:43.304928","MEAN_MOTION":14.14656614,"ECCENTRICITY":0.00095223,"INCLINATION":98.5029,"RA_OF_ASC_NODE":47.546,"ARG_OF_PERICENTER":2.8503,"MEAN_ANOMALY":357.2724,"EPHEMERIS_TYPE":0,"CLASSIFICATION_TYPE":"U","NORAD_CAT_ID":23455,"ELEMENT_SET_NO":999,"REV_AT_EPOCH":60982,"BSTAR":6.7842031e-5,"MEAN_MOTION_DOT":8.9e-7,"MEAN_MOTION_DDOT":0},{"OBJECT_NAME":"NOAA 15","OBJECT_ID":"1998-030A","EPOCH":"2026-03-14T14:33:21.358944","MEAN_MOTION":14.27114805,"ECCENTRICITY":0.00090659,"INCLINATION":98.5158,"RA_OF_ASC_NODE":96.7593,"ARG_OF_PERICENTER":263.8212,"MEAN_ANOMALY":96.1936,"EPHEMERIS_TYPE":0,"CLASSIFICATION_TYPE":"U","NORAD_CAT_ID":25338,"ELEMENT_SET_NO":999,"REV_AT_EPOCH":44780,"BSTAR":8.8795099e-5,"MEAN_MOTION_DOT":1.74e-6,"MEAN_MOTION_DDOT":0},{"OBJECT_NAME":"NOAA 16","OBJECT_ID":"2000-055A","EPOCH":"2026-03-14T13:14:28.870656","MEAN_MOTION":14.1389968,"ECCENTRICITY":0.00098269,"INCLINATION":98.47,"RA_OF_ASC_NODE":92.801,"ARG_OF_PERICENTER":207.3692,"MEAN_ANOMALY":152.6965,"EPHEMERIS_TYPE":0,"CLASSIFICATION_TYPE":"U","NORAD_CAT_ID":26536,"ELEMENT_SET_NO":999,"REV_AT_EPOCH":61035,"BSTAR":9.5012158e-5,"MEAN_MOTION_DOT":1.39e-6,"MEAN_MOTION_DDOT":0}]
